NORAD_CAT_ID,OBJECT_NAME,OBJECT_TYPE,EPOCH,MEAN_MOTION,ECCENTRICITY,INCLINATION,RA_OF_ASC_NODE,ARG_OF_PERICENTER,MEAN_ANOMALY,BSTAR,MEAN_MOTION_DOT,MEAN_MOTION_DDOT,TLE_LINE0,TLE_LINE1,TLE_LINE2,SEMIMAJOR_AXIS,PERIOD,APOGEE,PERIGEE,DECAYED
53589.0,STARLINK-4673,PAYLOAD,2023-03-06 21:30:42,15.08855394,0.0002119,53.2169,136.8498,80.8829,279.2403,0.00079432,0.00012382,0.0,0 STARLINK-4673,1 53589U 22104B   23065.89632063  .00012382  00000-0  79432-3 0  9996,2 53589  53.2169 136.8498 0002119  80.8829 279.2403 15.08855394 30069,6917.833,95.437,541.164,538.232,0.0
53589.0,STARLINK-4673,PAYLOAD,2023-03-07 08:38:24,15.08830952,0.0001164,53.2186,134.7718,102.6851,257.4272,0.0007502,0.00011669,0.0,0 STARLINK-4673,1 53589U 22104B   23066.36000257  .00011669  00000-0  75020-3 0  9999,2 53589  53.2186 134.7718 0001164 102.6851 257.4272 15.08830952 29116,6917.908,95.438,540.578,538.968,0.0
53589.0,STARLINK-4673,PAYLOAD,2023-03-07 16:35:19,15.08859645,0.0001382,53.2169,133.2807,76.2353,283.8793,0.0027177,0.00043253,0.0,0 STARLINK-4673,1 53589U 22104B   23066.69120164  .00043253  00000-0  27177-2 0  9998,2 53589  53.2169 133.2807 0001382  76.2353 283.8793 15.08859645 29161,6917.82,95.436,540.641,538.729,0.0
53589.0,STARLINK-4673,PAYLOAD,2023-03-07 21:21:29,15.08831633,9.17e-05,53.2168,132.3886,104.8246,255.2848,-8.4677e-05,-1.635e-05,0.0,0 STARLINK-4673,1 53589U 22104B   23066.88992469 -.00001635  00000-0 -84677-4 0  9994,2 53589  53.2168 132.3886 0000917 104.8246 255.2848 15.08831633 30218,6917.906,95.438,540.405,539.137,0.0
53589.0,STARLINK-4673,PAYLOAD,2023-03-08 03:43:02,15.08838281,9.44e-05,53.2163,131.1992,102.8776,257.2322,0.00092427,0.00014452,0.0,0 STARLINK-4673,1 53589U 22104B   23067.15488741  .00014452  00000-0  92427-3 0  9998,2 53589  53.2163 131.1992 0000944 102.8776 257.2322 15.08838281 29239,6917.886,95.438,540.404,539.098,0.0
53589.0,STARLINK-4673,PAYLOAD,2023-03-08 10:04:35,15.0885431,0.0001097,53.2157,130.0102,101.384,258.7275,0.004233,0.00067755,0.0,0 STARLINK-4673,1 53589U 22104B   23067.41984957  .00067755  00000-0  42330-2 0  9998,2 53589  53.2157 130.0102 0001097 101.3840 258.7275 15.08854310 29277,6917.837,95.437,540.461,538.943,0.0
53589.0,STARLINK-4673,PAYLOAD,2023-03-08 21:12:17,15.08852963,0.0001481,53.2155,127.9291,73.8792,286.2363,0.0033258,0.0005306,0.0,0 STARLINK-4673,1 53589U 22104B   23067.88353230  .00053060  00000-0  33258-2 0  9996,2 53589  53.2155 127.9291 0001481  73.8792 286.2363 15.08852963 29349,6917.841,95.437,540.73,538.681,0.0
53589.0,STARLINK-4673,PAYLOAD,2023-03-09 11:30:44,15.08876372,0.0001104,53.2152,125.2517,81.5137,278.598,0.003484,0.00055653,0.0,0 STARLINK-4673,1 53589U 22104B   23068.47968726  .00055653  00000-0  34840-2 0  9992,2 53589  53.2152 125.2517 0001104  81.5137 278.5980 15.08876372 29438,6917.769,95.435,540.398,538.87,0.0
53589.0,STARLINK-4673,PAYLOAD,2023-03-09 21:03:03,15.0887268,0.0001192,53.2157,123.4677,85.565,274.5478,0.002112,0.00033515,0.0,0 STARLINK-4673,1 53589U 22104B   23068.87712562  .00033515  00000-0  21120-2 0  9991,2 53589  53.2157 123.4677 0001192  85.5650 274.5478 15.08872680 30518,6917.781,95.435,540.47,538.821,0.0
53589.0,STARLINK-4673,PAYLOAD,2023-03-10 09:46:08,15.08868735,0.0001064,53.2154,121.0892,102.9193,257.1918,0.002741,0.0004364,0.0,0 STARLINK-4673,1 53589U 22104B   23069.40704346  .00043640  00000-0  27410-2 0  9990,2 53589  53.2154 121.0892 0001064 102.9193 257.1918 15.08868735 29578,6917.793,95.436,540.394,538.922,0.0
53589.0,STARLINK-4673,PAYLOAD,2023-03-10 20:53:50,15.08854457,0.0001306,53.2153,119.0051,92.5343,267.5799,0.0016845,0.00026633,0.0,0 STARLINK-4673,1 53589U 22104B   23069.87072707  .00026633  00000-0  16845-2 0  9993,2 53589  53.2153 119.0051 0001306  92.5343 267.5799 15.08854457 30661,6917.836,95.437,540.605,538.798,0.0
53589.0,STARLINK-4673,PAYLOAD,2023-03-11 08:01:33,15.08833487,0.0001211,53.2154,116.9247,76.0866,284.0261,0.0020217,0.00032028,0.0,0 STARLINK-4673,1 53589U 22104B   23070.33441400  .00032028  00000-0  20217-2 0  9999,2 53589  53.2154 116.9247 0001211  76.0866 284.0261 15.08833487 29719,6917.9,95.438,540.603,538.928,0.0
53589.0,STARLINK-4673,PAYLOAD,2023-03-11 09:36:56,15.08830398,0.0001253,53.2158,116.6277,71.042,289.0708,0.0020542,0.00032547,0.0,0 STARLINK-4673,1 53589U 22104B   23070.40065558  .00032547  00000-0  20542-2 0  9990,2 53589  53.2158 116.6277 0001253  71.0420 289.0708 15.08830398 30744,6917.91,95.438,540.642,538.908,0.0
53589.0,STARLINK-4673,PAYLOAD,2023-03-11 14:23:06,15.08843717,0.0001335,53.2155,115.7349,78.6565,281.4577,0.0021182,0.00033588,0.0,0 STARLINK-4673,1 53589U 22104B   23070.59937583  .00033588  00000-0  21182-2 0  9993,2 53589  53.2155 115.7349 0001335  78.6565 281.4577 15.08843717 30777,6917.869,95.437,540.658,538.81,0.0
53589.0,STARLINK-4673,PAYLOAD,2023-03-12 06:16:59,15.0880951,0.0001407,53.2158,112.7612,90.1096,270.0058,0.0010951,0.00017169,0.0,0 STARLINK-4673,1 53589U 22104B   23071.26179643  .00017169  00000-0  10951-2 0  9992,2 53589  53.2158 112.7612 0001407  90.1096 270.0058 15.08809510 29856,6917.974,95.439,540.812,538.865,0.0
53589.0,STARLINK-4673,PAYLOAD,2023-03-12 07:52:22,15.08808639,0.0001316,53.2162,112.4639,93.2788,266.8355,0.0014773,0.00023281,0.0,0 STARLINK-4673,1 53589U 22104B   23071.32803886  .00023281  00000-0  14773-2 0  9990,2 53589  53.2162 112.4639 0001316  93.2788 266.8355 15.08808639 30887,6917.976,95.44,540.752,538.931,0.0
53589.0,STARLINK-4673,PAYLOAD,2023-03-13 12:29:18,15.08894518,0.00017,53.2168,107.1095,98.6,261.5185,0.0022516,0.00035782,0.0,0 STARLINK-4673,1 53589U 22104B   23072.52035160  .00035782  00000-0  22516-2 0  9998,2 53589  53.2168 107.1095 0001700  98.6000 261.5185 15.08894518 30045,6917.714,95.434,540.755,538.403,0.0
53589.0,STARLINK-4673,PAYLOAD,2023-03-14 02:47:46,15.08873409,0.0001863,53.2172,104.435,91.3268,268.7938,0.00069182,0.00010749,0.0,0 STARLINK-4673,1 53589U 22104B   23073.11650549  .00010749  00000-0  69182-3 0  9995,2 53589  53.2172 104.4350 0001863  91.3268 268.7938 15.08873409 30131,6917.778,95.435,540.932,538.354,0.0
53589.0,STARLINK-4673,PAYLOAD,2023-03-14 09:09:18,15.08877646,0.0001591,53.2167,103.2457,78.3937,281.7234,0.0018877,0.00029914,0.0,0 STARLINK-4673,1 53589U 22104B   23073.38146108  .00029914  00000-0  18877-2 0  9993,2 53589  53.2167 103.2457 0001591  78.3937 281.7234 15.08877646 31194,6917.765,95.435,540.731,538.53,0.0
53589.0,STARLINK-4673,PAYLOAD,2023-03-14 18:41:36,15.08870693,0.0002079,53.2158,101.4609,82.7233,277.3995,0.0015701,0.0002481,0.0,0 STARLINK-4673,1 53589U 22104B   23073.77889929  .00024810  00000-0  15701-2 0  9994,2 53589  53.2158 101.4609 0002079  82.7233 277.3995 15.08870693 30237,6917.787,95.436,541.09,538.213,0.0
53589.0,STARLINK-4673,PAYLOAD,2023-03-15 12:10:50,15.08874583,0.0001972,53.2168,98.1906,88.9082,271.2136,0.00062223,9.638e-05,0.0,0 STARLINK-4673,1 53589U 22104B   23074.50752575  .00009638  00000-0  62223-3 0  9995,2 53589  53.2168  98.1906 0001972  88.9082 271.2136 15.08874583 30345,6917.775,95.435,541.004,538.275,0.0
53589.0,STARLINK-4673,PAYLOAD,2023-03-15 18:32:23,15.08834761,0.0001653,53.2166,97.0027,95.5201,264.5979,-0.00063054,-0.00010308,0.0,0 STARLINK-4673,1 53589U 22104B   23074.77249046 -.00010308  00000-0 -63054-3 0  9999,2 53589  53.2166  97.0027 0001653  95.5201 264.5979 15.08834761 30386,6917.896,95.438,540.905,538.618,0.0
53589.0,STARLINK-4673,PAYLOAD,2023-03-16 10:26:14,15.08840201,0.0001593,53.2168,94.0279,88.8887,271.2288,0.00020976,3.052e-05,0.0,0 STARLINK-4673,1 53589U 22104B   23075.43489129  .00003052  00000-0  20976-3 0  9993,2 53589  53.2168  94.0279 0001593  88.8887 271.2288 15.08840201 30487,6917.88,95.438,540.847,538.643,0.0
53589.0,STARLINK-4673,PAYLOAD,2023-03-16 18:23:10,15.08824009,0.0001218,53.2171,92.5411,89.0374,271.0758,-2.3974e-05,-6.69e-06,0.0,0 STARLINK-4673,1 53589U 22104B   23075.76609629 -.00000669  00000-0 -23974-4 0  9993,2 53589  53.2171  92.5411 0001218  89.0374 271.0758 15.08824009 30534,6917.929,95.439,540.637,538.952,0.0
53589.0,STARLINK-4673,PAYLOAD,2023-03-17 08:41:39,15.08835233,0.000135,53.2157,89.8653,82.0801,278.0345,0.0012064,0.00018961,0.0,0 STARLINK-4673,1 53589U 22104B   23076.36226253  .00018961  00000-0  12064-2 0  9996,2 53589  53.2157  89.8653 0001350  82.0801 278.0345 15.08835233 30620,6917.895,95.438,540.694,538.826,0.0
53589.0,STARLINK-4673,PAYLOAD,2023-03-17 18:13:58,15.0884689,0.0001365,53.2156,88.0812,81.0888,279.0258,0.0012054,0.00018952,0.0,0 STARLINK-4673,1 53589U 22104B   23076.75970286  .00018952  00000-0  12054-2 0  9990,2 53589  53.2156  88.0812 0001365  81.0888 279.0258 15.08846890 31702,6917.859,95.437,540.669,538.78,0.0
53589.0,STARLINK-4673,PAYLOAD,2023-03-18 11:43:12,15.08869404,0.0001406,53.2158,84.8098,82.7494,277.3658,0.0011075,0.00017396,0.0,0 STARLINK-4673,1 53589U 22104B   23077.48833476  .00017396  00000-0  11075-2 0  9993,2 53589  53.2158  84.8098 0001406  82.7494 277.3658 15.08869404 30790,6917.791,95.436,540.628,538.683,0.0
53589.0,STARLINK-4673,PAYLOAD,2023-03-18 18:04:45,15.08842221,0.0001503,53.216,83.6194,92.5621,267.5543,6.0304e-06,-1.92e-06,0.0,0 STARLINK-4673,1 53589U 22104B   23077.75329937 -.00000192  00000-0  60304-5 0  9994,2 53589  53.2160  83.6194 0001503  92.5621 267.5543 15.08842221 30833,6917.874,95.437,540.778,538.699,0.0
53589.0,STARLINK-4673,PAYLOAD,2023-03-19 09:58:36,15.08855743,0.0001307,53.216,80.6469,86.2944,273.8198,0.00070917,0.00011021,0.0,0 STARLINK-4673,1 53589U 22104B   23078.41569532  .00011021  00000-0  70917-3 0  9996,2 53589  53.2160  80.6469 0001307  86.2944 273.8198 15.08855743 31958,6917.832,95.437,540.601,538.793,0.0
53589.0,STARLINK-4673,PAYLOAD,2023-03-20 05:03:13,15.0885437,0.0001374,53.2175,77.0781,113.3503,246.7634,0.00081939,0.00012782,0.0,0 STARLINK-4673,1 53589U 22104B   23079.21057719  .00012782  00000-0  81939-3 0  9995,2 53589  53.2175  77.0781 0001374 113.3503 246.7634 15.08854370 31058,6917.836,95.437,540.652,538.751,0.0
